start=new Date('2021-12-18T00:00:00.000Z').valueOf();
sats=[{"APOAPSIS":"525.324","COUNTRY_CODE":"US","INCLINATION":"70.0000","EPOCH":"2021-12-17T22:00:00.999936","TLE_LINE1":"1 49150U 21082W   21351.91667824 -.00662474  00000-0 -38496-1 0  9999","MEAN_MOTION":"15.14334600","LAUNCH_DATE":"2021-09-14","TIME_SYSTEM":"UTC","MEAN_MOTION_DDOT":"0.0000000000000","MEAN_MOTION_DOT":"-0.00662474","PERIOD":"95.091","EPHEMERIS_TYPE":"0","BSTAR":"-0.03849600000000","ECCENTRICITY":"0.00033650","REF_FRAME":"TEME","DECAY_DATE":null,"ELEMENT_SET_NO":"999","SITE":"AFWTR","OBJECT_NAME":"STARLINK-3104","SEMIMAJOR_AXIS":"6901.136","TLE_LINE2":"2 49150  70.0000 224.7780 0003365 288.3473 314.0556 15.14334600  3644","FILE":"3243045","OBJECT_TYPE":"PAYLOAD","GP_ID":"191904028","RA_OF_ASC_NODE":"224.7780","OBJECT_ID":"2021-082W","RCS_SIZE":"LARGE","ARG_OF_PERICENTER":"288.3473","CLASSIFICATION_TYPE":"U","MEAN_ELEMENT_THEORY":"SGP4","PERIAPSIS":"520.679","MEAN_ANOMALY":"314.0556","CENTER_NAME":"EARTH","REV_AT_EPOCH":"364","NORAD_CAT_ID":"49150"},{"MEAN_MOTION_DDOT":"0.0000000000000","MEAN_MOTION_DOT":"0.00027175","EPHEMERIS_TYPE":"0","BSTAR":"0.00022891000000","PERIOD":"91.736","REF_FRAME":"TEME","ECCENTRICITY":"0.00035760","SITE":"AFWTR","DECAY_DATE":null,"ELEMENT_SET_NO":"999","APOAPSIS":"362.099","INCLINATION":"69.9977","TLE_LINE1":"1 49151U 21082X   21351.91667824  .00027175  00000-0  22891-3 0  9995","EPOCH":"2021-12-17T22:00:00.999936","COUNTRY_CODE":"US","MEAN_MOTION":"15.69723560","TIME_SYSTEM":"UTC","LAUNCH_DATE":"2021-09-14","PERIAPSIS":"357.281","MEAN_ELEMENT_THEORY":"SGP4","MEAN_ANOMALY":"305.1459","REV_AT_EPOCH":"369","NORAD_CAT_ID":"49151","CENTER_NAME":"EARTH","TLE_LINE2":"2 49151  69.9977 220.3956 0003576 273.4111 305.1459 15.69723560  3695","FILE":"3243045","SEMIMAJOR_AXIS":"6737.825","OBJECT_NAME":"STARLINK-3102","GP_ID":"191905040","OBJECT_TYPE":"PAYLOAD","RA_OF_ASC_NODE":"220.3956","CLASSIFICATION_TYPE":"U","OBJECT_ID":"2021-082X","ARG_OF_PERICENTER":"273.4111","RCS_SIZE":"LARGE"},{"REV_AT_EPOCH":"369","NORAD_CAT_ID":"49152","CENTER_NAME":"EARTH","MEAN_ANOMALY":"312.3242","PERIAPSIS":"357.484","MEAN_ELEMENT_THEORY":"SGP4","CLASSIFICATION_TYPE":"U","OBJECT_ID":"2021-082Y","RCS_SIZE":"LARGE","ARG_OF_PERICENTER":"274.7629","RA_OF_ASC_NODE":"220.3929","GP_ID":"191905242","OBJECT_TYPE":"PAYLOAD","TLE_LINE2":"2 49152  69.9978 220.3929 0003181 274.7629 312.3242 15.69745576  3698","SEMIMAJOR_AXIS":"6737.762","FILE":"3243045","OBJECT_NAME":"STARLINK-3081","SITE":"AFWTR","DECAY_DATE":null,"ELEMENT_SET_NO":"999","REF_FRAME":"TEME","ECCENTRICITY":"0.00031810","EPHEMERIS_TYPE":"0","BSTAR":"0.00018248000000","PERIOD":"91.735","MEAN_MOTION_DDOT":"0.0000000000000","MEAN_MOTION_DOT":"0.00021624","TIME_SYSTEM":"UTC","LAUNCH_DATE":"2021-09-14","MEAN_MOTION":"15.69745576","INCLINATION":"69.9978","EPOCH":"2021-12-17T22:00:00.999936","TLE_LINE1":"1 49152U 21082Y   21351.91667824  .00021624  00000-0  18248-3 0  9990","COUNTRY_CODE":"US","APOAPSIS":"361.770"},{"RA_OF_ASC_NODE":"220.4009","CLASSIFICATION_TYPE":"U","OBJECT_ID":"2021-082Z","ARG_OF_PERICENTER":"270.9299","RCS_SIZE":"LARGE","TLE_LINE2":"2 49153  69.9981 220.4009 0003651 270.9299 311.8571 15.69716830  3696","SEMIMAJOR_AXIS":"6737.844","FILE":"3243045","OBJECT_NAME":"STARLINK-3072","GP_ID":"191904231","OBJECT_TYPE":"PAYLOAD","MEAN_ANOMALY":"311.8571","REV_AT_EPOCH":"369","NORAD_CAT_ID":"49153","CENTER_NAME":"EARTH","PERIAPSIS":"357.249","MEAN_ELEMENT_THEORY":"SGP4","MEAN_MOTION":"15.69716830","TIME_SYSTEM":"UTC","LAUNCH_DATE":"2021-09-14","APOAPSIS":"362.169","INCLINATION":"69.9981","TLE_LINE1":"1 49153U 21082Z   21351.91667824  .00026753  00000-0  22546-3 0  9995","EPOCH":"2021-12-17T22:00:00.999936","COUNTRY_CODE":"US","REF_FRAME":"TEME","ECCENTRICITY":"0.00036510","SITE":"AFWTR","ELEMENT_SET_NO":"999","DECAY_DATE":null,"MEAN_MOTION_DDOT":"0.0000000000000","MEAN_MOTION_DOT":"0.00026753","EPHEMERIS_TYPE":"0","BSTAR":"0.00022546000000","PERIOD":"91.736"},{"MEAN_MOTION_DOT":"0.00027136","MEAN_MOTION_DDOT":"0.0000000000000","EPHEMERIS_TYPE":"0","BSTAR":"0.00022866000000","PERIOD":"91.736","REF_FRAME":"TEME","ECCENTRICITY":"0.00032040","SITE":"AFWTR","DECAY_DATE":null,"ELEMENT_SET_NO":"999","APOAPSIS":"361.865","TLE_LINE1":"1 49154U 21082AA  21351.91667824  .00027136  00000-0  22866-3 0  9997","EPOCH":"2021-12-17T22:00:00.999936","INCLINATION":"69.9983","COUNTRY_CODE":"US","MEAN_MOTION":"15.69717759","TIME_SYSTEM":"UTC","LAUNCH_DATE":"2021-09-14","PERIAPSIS":"357.548","MEAN_ELEMENT_THEORY":"SGP4","MEAN_ANOMALY":"314.2717","NORAD_CAT_ID":"49154","REV_AT_EPOCH":"369","CENTER_NAME":"EARTH","SEMIMAJOR_AXIS":"6737.842","TLE_LINE2":"2 49154  69.9983 220.3946 0003204 274.8884 314.2717 15.69717759  3695","FILE":"3243045","OBJECT_NAME":"STARLINK-3068","GP_ID":"191904433","OBJECT_TYPE":"PAYLOAD","RA_OF_ASC_NODE":"220.3946","CLASSIFICATION_TYPE":"U","RCS_SIZE":"LARGE","ARG_OF_PERICENTER":"274.8884","OBJECT_ID":"2021-082AA"},{"OBJECT_TYPE":"PAYLOAD","GP_ID":"191904636","OBJECT_NAME":"STARLINK-3060","SEMIMAJOR_AXIS":"6737.811","TLE_LINE2":"2 49155  69.9983 220.3884 0003516 280.7908 304.1726 15.69728540  3694","FILE":"3243045","ARG_OF_PERICENTER":"280.7908","RCS_SIZE":"LARGE","OBJECT_ID":"2021-082AB","CLASSIFICATION_TYPE":"U","RA_OF_ASC_NODE":"220.3884","MEAN_ELEMENT_THEORY":"SGP4","PERIAPSIS":"357.307","CENTER_NAME":"EARTH","NORAD_CAT_ID":"49155","REV_AT_EPOCH":"369","MEAN_ANOMALY":"304.1726","COUNTRY_CODE":"US","EPOCH":"2021-12-17T22:00:00.999936","TLE_LINE1":"1 49155U 21082AB  21351.91667824  .00025847  00000-0  21781-3 0  9990","INCLINATION":"69.9983","APOAPSIS":"362.045","LAUNCH_DATE":"2021-09-14","TIME_SYSTEM":"UTC","MEAN_MOTION":"15.69728540","PERIOD":"91.736","EPHEMERIS_TYPE":"0","BSTAR":"0.00021781000000","MEAN_MOTION_DDOT":"0.0000000000000","MEAN_MOTION_DOT":"0.00025847","ELEMENT_SET_NO":"999","DECAY_DATE":null,"SITE":"AFWTR","ECCENTRICITY":"0.00035160","REF_FRAME":"TEME"},{"APOAPSIS":"362.166","COUNTRY_CODE":"US","EPOCH":"2021-12-17T22:00:00.999936","TLE_LINE1":"1 49156U 21082AC  21351.91667824  .00026202  00000-0  22073-3 0  9992","INCLINATION":"69.9991","MEAN_MOTION":"15.69731234","LAUNCH_DATE":"2021-09-14","TIME_SYSTEM":"UTC","MEAN_MOTION_DDOT":"0.0000000000000","MEAN_MOTION_DOT":"0.00026202","PERIOD":"91.735","BSTAR":"0.00022073000000","EPHEMERIS_TYPE":"0","ECCENTRICITY":"0.00037070","REF_FRAME":"TEME","ELEMENT_SET_NO":"999","DECAY_DATE":null,"SITE":"AFWTR","OBJECT_NAME":"STARLINK-3085","TLE_LINE2":"2 49156  69.9991 220.3774 0003707 273.7133 321.8465 15.69731234  3696","SEMIMAJOR_AXIS":"6737.803","FILE":"3243045","OBJECT_TYPE":"PAYLOAD","GP_ID":"191904839","RA_OF_ASC_NODE":"220.3774","RCS_SIZE":"LARGE","ARG_OF_PERICENTER":"273.7133","OBJECT_ID":"2021-082AC","CLASSIFICATION_TYPE":"U","MEAN_ELEMENT_THEORY":"SGP4","PERIAPSIS":"357.170","MEAN_ANOMALY":"321.8465","CENTER_NAME":"EARTH","NORAD_CAT_ID":"49156","REV_AT_EPOCH":"369"},{"FILE":"3243045","TLE_LINE2":"2 49157  69.9979 220.3884 0003424 273.1262 318.2431 15.69718982  3696","SEMIMAJOR_AXIS":"6737.838","OBJECT_NAME":"STARLINK-3051","GP_ID":"191903826","OBJECT_TYPE":"PAYLOAD","RA_OF_ASC_NODE":"220.3884","CLASSIFICATION_TYPE":"U","OBJECT_ID":"2021-082AD","ARG_OF_PERICENTER":"273.1262","RCS_SIZE":"LARGE","PERIAPSIS":"357.396","MEAN_ELEMENT_THEORY":"SGP4","MEAN_ANOMALY":"318.2431","REV_AT_EPOCH":"369","NORAD_CAT_ID":"49157","CENTER_NAME":"EARTH","APOAPSIS":"362.010","INCLINATION":"69.9979","TLE_LINE1":"1 49157U 21082AD  21351.91667824 -.00007179  00000-0 -58484-4 0  9993","EPOCH":"2021-12-17T22:00:00.999936","COUNTRY_CODE":"US","MEAN_MOTION":"15.69718982","TIME_SYSTEM":"UTC","LAUNCH_DATE":"2021-09-14","MEAN_MOTION_DDOT":"0.0000000000000","MEAN_MOTION_DOT":"-0.00007179","BSTAR":"-0.00005848400000","EPHEMERIS_TYPE":"0","PERIOD":"91.736","REF_FRAME":"TEME","ECCENTRICITY":"0.00034240","SITE":"AFWTR","DECAY_DATE":null,"ELEMENT_SET_NO":"999"},{"APOAPSIS":"362.192","COUNTRY_CODE":"US","TLE_LINE1":"1 49158U 21082AE  21351.91667824  .00026513  00000-0  22345-3 0  9991","EPOCH":"2021-12-17T22:00:00.999936","INCLINATION":"69.9981","MEAN_MOTION":"15.69717835","LAUNCH_DATE":"2021-09-14","TIME_SYSTEM":"UTC","MEAN_MOTION_DDOT":"0.0000000000000","MEAN_MOTION_DOT":"0.00026513","PERIOD":"91.736","EPHEMERIS_TYPE":"0","BSTAR":"0.00022345000000","ECCENTRICITY":"0.00036890","REF_FRAME":"TEME","DECAY_DATE":null,"ELEMENT_SET_NO":"999","SITE":"AFWTR","OBJECT_NAME":"STARLINK-3083","TLE_LINE2":"2 49158  69.9981 220.3795 0003689 272.3492 327.4546 15.69717835  3695","SEMIMAJOR_AXIS":"6737.841","FILE":"3243045","OBJECT_TYPE":"PAYLOAD","GP_ID":"191904029","RA_OF_ASC_NODE":"220.3795","RCS_SIZE":"LARGE","ARG_OF_PERICENTER":"272.3492","OBJECT_ID":"2021-082AE","CLASSIFICATION_TYPE":"U","MEAN_ELEMENT_THEORY":"SGP4","PERIAPSIS":"357.221","MEAN_ANOMALY":"327.4546","CENTER_NAME":"EARTH","NORAD_CAT_ID":"49158","REV_AT_EPOCH":"369"},{"CLASSIFICATION_TYPE":"U","OBJECT_ID":"2021-082AF","ARG_OF_PERICENTER":"287.2405","RCS_SIZE":"LARGE","RA_OF_ASC_NODE":"224.7843","GP_ID":"191905041","OBJECT_TYPE":"PAYLOAD","SEMIMAJOR_AXIS":"6901.106","TLE_LINE2":"2 49159  70.0000 224.7843 0003353 287.2405 329.3326 15.14344595  3641","FILE":"3243045","OBJECT_NAME":"STARLINK-3056","REV_AT_EPOCH":"364","NORAD_CAT_ID":"49159","CENTER_NAME":"EARTH","MEAN_ANOMALY":"329.3326","PERIAPSIS":"520.657","MEAN_ELEMENT_THEORY":"SGP4","TIME_SYSTEM":"UTC","LAUNCH_DATE":"2021-09-14","MEAN_MOTION":"15.14344595","INCLINATION":"70.0000","TLE_LINE1":"1 49159U 21082AF  21351.91667824 -.00662341  00000-0 -38477-1 0  9990","EPOCH":"2021-12-17T22:00:00.999936","COUNTRY_CODE":"US","APOAPSIS":"525.285","SITE":"AFWTR","ELEMENT_SET_NO":"999","DECAY_DATE":null,"REF_FRAME":"TEME","ECCENTRICITY":"0.00033530","EPHEMERIS_TYPE":"0","BSTAR":"-0.03847700000000","PERIOD":"95.091","MEAN_MOTION_DDOT":"0.0000000000000","MEAN_MOTION_DOT":"-0.00662341"}];
